NORAD_CAT_ID,OBJECT_NAME,OBJECT_TYPE,EPOCH,MEAN_MOTION,ECCENTRICITY,INCLINATION,RA_OF_ASC_NODE,ARG_OF_PERICENTER,MEAN_ANOMALY,BSTAR,MEAN_MOTION_DOT,MEAN_MOTION_DDOT,TLE_LINE0,TLE_LINE1,TLE_LINE2,SEMIMAJOR_AXIS,PERIOD,APOGEE,PERIGEE,DECAYED
52367.0,STARLINK-3817,PAYLOAD,2024-08-12 05:10:15,15.08844152,0.0001564,53.2147,248.0354,100.4337,259.6831,0.00017776,2.542e-05,0.0,0 STARLINK-3817,1 52367U 22045AN  24225.21545949  .00002542  00000-0  17776-3 0  9994,2 52367  53.2147 248.0354 0001564 100.4337 259.6831 15.08844152129191,6917.868,95.437,540.815,538.651,0.0
52367.0,STARLINK-3817,PAYLOAD,2024-08-12 08:21:01,15.08850217,0.0001516,53.2151,247.441,97.4966,262.6198,0.00032776,4.934e-05,0.0,0 STARLINK-3817,1 52367U 22045AN  24225.34793912  .00004934  00000-0  32776-3 0  9997,2 52367  53.2151 247.4410 0001516  97.4966 262.6198 15.08850217129214,6917.849,95.437,540.763,538.665,0.0
52367.0,STARLINK-3817,PAYLOAD,2024-08-13 08:11:48,15.08843154,0.0001474,53.2161,242.9852,98.1769,261.9391,2.9386e-05,1.8e-06,0.0,0 STARLINK-3817,1 52367U 22045AN  24226.34153807  .00000180  00000-0  29386-4 0  9994,2 52367  53.2161 242.9852 0001474  98.1769 261.9391 15.08843154129362,6917.871,95.437,540.755,538.716,0.0
52367.0,STARLINK-3817,PAYLOAD,2024-08-13 17:44:07,15.08834534,0.0001426,53.2156,241.1971,88.0087,272.1068,-0.00010199,-1.911e-05,0.0,0 STARLINK-3817,1 52367U 22045AN  24226.73898057 -.00001911  00000-0 -10199-3 0  9996,2 52367  53.2156 241.1971 0001426  88.0087 272.1068 15.08834534129421,6917.897,95.438,540.749,538.776,0.0
52367.0,STARLINK-3817,PAYLOAD,2024-08-14 06:27:13,15.08826111,0.0001537,53.2161,238.8223,99.7218,260.3947,-0.00011709,-2.15e-05,0.0,0 STARLINK-3817,1 52367U 22045AN  24227.26891066 -.00002150  00000-0 -11709-3 0  9992,2 52367  53.2161 238.8223 0001537  99.7218 260.3947 15.08826111129504,6917.923,95.438,540.851,538.725,0.0
52367.0,STARLINK-3817,PAYLOAD,2024-08-14 09:38:00,15.08827292,0.0001512,53.2162,238.226,97.2182,262.8982,-9.8163e-05,-1.849e-05,0.0,0 STARLINK-3817,1 52367U 22045AN  24227.40139058 -.00001849  00000-0 -98163-4 0  9998,2 52367  53.2162 238.2260 0001512  97.2182 262.8982 15.08827292129525,6917.919,95.438,540.83,538.738,0.0
52367.0,STARLINK-3817,PAYLOAD,2024-08-14 17:34:55,15.0883038,0.0001514,53.2157,236.7384,103.5433,256.5728,-6.0758e-05,-1.255e-05,0.0,0 STARLINK-3817,1 52367U 22045AN  24227.73259075 -.00001255  00000-0 -60758-4 0  9996,2 52367  53.2157 236.7384 0001514 103.5433 256.5728 15.08830380129576,6917.91,95.438,540.822,538.727,0.0
52367.0,STARLINK-3817,PAYLOAD,2024-08-15 07:53:24,15.08822165,0.0001583,53.2155,234.0622,98.3733,261.7438,0.00056393,8.694e-05,0.0,0 STARLINK-3817,1 52367U 22045AN  24228.32875927  .00008694  00000-0  56393-3 0  9993,2 52367  53.2155 234.0622 0001583  98.3733 261.7438 15.08822165129668,6917.935,95.439,540.895,538.705,0.0
52367.0,STARLINK-3817,PAYLOAD,2024-08-15 17:25:43,15.08837119,0.000144,53.2153,232.2777,92.6685,267.4472,0.0001709,2.433e-05,0.0,0 STARLINK-3817,1 52367U 22045AN  24228.72619284  .00002433  00000-0  17090-3 0  9995,2 52367  53.2153 232.2777 0001440  92.6685 267.4472 15.08837119129725,6917.889,95.438,540.75,538.758,0.0
52367.0,STARLINK-3817,PAYLOAD,2024-08-16 07:44:11,15.08840074,0.0001354,53.2145,229.5996,92.4529,267.6618,0.00021164,3.082e-05,0.0,0 STARLINK-3817,1 52367U 22045AN  24229.32235408  .00003082  00000-0  21164-3 0  9992,2 52367  53.2145 229.5996 0001354  92.4529 267.6618 15.08840074129815,6917.88,95.438,540.682,538.808,0.0
52367.0,STARLINK-3817,PAYLOAD,2024-08-17 04:24:11,15.08845952,0.0001477,53.2153,225.7321,89.393,270.7231,0.00016095,2.275e-05,0.0,0 STARLINK-3817,1 52367U 22045AN  24230.18347133  .00002275  00000-0  16095-3 0  9997,2 52367  53.2153 225.7321 0001477  89.3930 270.7231 15.08845952129941,6917.862,95.437,540.749,538.705,0.0
52367.0,STARLINK-3817,PAYLOAD,2024-08-17 05:59:34,15.08847447,0.0001459,53.215,225.435,89.3475,270.7684,0.00015177,2.129e-05,0.0,0 STARLINK-3817,1 52367U 22045AN  24230.24971039  .00002129  00000-0  15177-3 0  9990,2 52367  53.2150 225.4350 0001459  89.3475 270.7684 15.08847447129955,6917.858,95.437,540.732,538.713,0.0
52367.0,STARLINK-3817,PAYLOAD,2024-08-18 04:14:59,15.08841545,0.0001527,53.2155,221.2666,87.0566,273.0601,7.6334e-05,9.27e-06,0.0,0 STARLINK-3817,1 52367U 22045AN  24231.17707221  .00000927  00000-0  76334-4 0  9990,2 52367  53.2155 221.2666 0001527  87.0566 273.0601 15.08841545130091,6917.876,95.437,540.797,538.684,0.0
52367.0,STARLINK-3817,PAYLOAD,2024-08-18 05:50:22,15.08843397,0.0001776,53.2163,220.9667,71.1278,288.9907,8.1424e-05,1.008e-05,0.0,0 STARLINK-3817,1 52367U 22045AN  24231.24331230  .00001008  00000-0  81424-4 0  9998,2 52367  53.2163 220.9667 0001776  71.1278 288.9907 15.08843397130100,6917.87,95.437,540.964,538.506,0.0
52367.0,STARLINK-3817,PAYLOAD,2024-08-18 09:01:08,15.08841797,0.0001732,53.2162,220.3756,74.6937,285.4246,5.7412e-05,6.26e-06,0.0,0 STARLINK-3817,1 52367U 22045AN  24231.37579304  .00000626  00000-0  57412-4 0  9993,2 52367  53.2162 220.3756 0001732  74.6937 285.4246 15.08841797130126,6917.875,95.437,540.938,538.542,0.0
52367.0,STARLINK-3817,PAYLOAD,2024-08-19 04:05:46,15.08837124,0.0001621,53.217,216.8076,98.9659,261.1517,8.6929e-06,-1.5e-06,0.0,0 STARLINK-3817,1 52367U 22045AN  24232.17067584 -.00000150  00000-0  86929-5 0  9993,2 52367  53.2170 216.8076 0001621  98.9659 261.1517 15.08837124130241,6917.889,95.438,540.876,538.633,0.0
52367.0,STARLINK-3817,PAYLOAD,2024-08-19 08:51:55,15.08834729,0.0001663,53.2171,215.9172,102.9069,257.2109,-2.1203e-05,-6.25e-06,0.0,0 STARLINK-3817,1 52367U 22045AN  24232.36939804 -.00000625  00000-0 -21203-4 0  9998,2 52367  53.2171 215.9172 0001663 102.9069 257.2109 15.08834729130270,6917.897,95.438,540.912,538.611,0.0
52367.0,STARLINK-3817,PAYLOAD,2024-08-20 05:31:56,15.08844024,0.0001481,53.2162,212.053,88.3435,271.7727,8.3696e-05,1.044e-05,0.0,0 STARLINK-3817,1 52367U 22045AN  24233.23051064  .00001044  00000-0  83696-4 0  9996,2 52367  53.2162 212.0530 0001481  88.3435 271.7727 15.08844024130409,6917.868,95.437,540.758,538.709,0.0
52367.0,STARLINK-3817,PAYLOAD,2024-08-20 10:18:05,15.08844124,0.0001443,53.2163,211.1624,90.0774,270.0383,0.00011546,1.55e-05,0.0,0 STARLINK-3817,1 52367U 22045AN  24233.42922954  .00001550  00000-0  11546-3 0  9998,2 52367  53.2163 211.1624 0001443  90.0774 270.0383 15.08844124130432,6917.868,95.437,540.731,538.735,0.0
52367.0,STARLINK-3817,PAYLOAD,2024-08-21 05:22:43,15.08839524,0.0001493,53.2164,207.5938,90.2975,269.8188,9.6352e-05,1.246e-05,0.0,0 STARLINK-3817,1 52367U 22045AN  24234.22411446  .00001246  00000-0  96352-4 0  9997,2 52367  53.2164 207.5938 0001493  90.2975 269.8188 15.08839524130550,6917.882,95.438,540.78,538.714,0.0
52367.0,STARLINK-3817,PAYLOAD,2024-08-21 22:51:58,15.08838338,0.0001484,53.216,204.3235,94.9747,265.1414,-3.6569e-05,-8.7e-06,0.0,0 STARLINK-3817,1 52367U 22045AN  24234.95276094 -.00000870  00000-0 -36569-4 0  9993,2 52367  53.2160 204.3235 0001484  94.9747 265.1414 15.08838338130664,6917.885,95.438,540.777,538.724,0.0
